{
  "type": "FeatureCollection",
  "features": [
    {
      "type": "Feature",
      "properties": {
        "norad_id": 31235,
        "name": "FENGYUN 1C DEB",
        "group": "fengyun-1c-debris",
        "lat": -6.268583120982785,
        "lon": 146.14260140698116,
        "alt_km": 703.8222697423244,
        "timestamp": "2025-12-23T09:49:07.364570+00:00",
        "meta_object_name": "FENGYUN 1C DEB",
        "meta_object_id": "1999-025BLR",
        "meta_epoch": "2025-12-21T15:31:59.524608",
        "meta_mean_motion": 14.18727874,
        "meta_eccentricity": 0.01798542,
        "meta_inclination": 98.4682,
        "meta_ra_of_asc_node": 143.5213,
        "meta_arg_of_pericenter": 355.9124,
        "meta_mean_anomaly": 4.0574,
        "meta_ephemeris_type": 0,
        "meta_classification_type": "U",
        "meta_norad_cat_id": 31235,
        "meta_element_set_no": 999,
        "meta_rev_at_epoch": 63293,
        "meta_bstar": 0.0023710109,
        "meta_mean_motion_dot": 5.742e-05,
        "meta_mean_motion_ddot": 0,
        "tle_line1": "1 31235U 99025BLR 25355.64721672  .00005742  00000+0  23710-2 0  9996",
        "tle_line2": "2 31235  98.4682 143.5213 0179854 355.9124   4.0574 14.18727874632937"
      },
      "geometry": {
        "type": "Point",
        "coordinates": [
          146.14260140698116,
          -6.268583120982785
        ]
      }
    },
    {
      "type": "Feature",
      "properties": {
        "norad_id": 31236,
        "name": "FENGYUN 1C DEB",
        "group": "fengyun-1c-debris",
        "lat": 49.98755861682898,
        "lon": -58.600289627787454,
        "alt_km": 742.8275784715424,
        "timestamp": "2025-12-23T09:49:07.364580+00:00",
        "meta_object_name": "FENGYUN 1C DEB",
        "meta_object_id": "1999-025BLS",
        "meta_epoch": "2025-12-22T14:31:53.828832",
        "meta_mean_motion": 13.8599188,
        "meta_eccentricity": 0.0314943,
        "meta_inclination": 98.5455,
        "meta_ra_of_asc_node": 310.9827,
        "meta_arg_of_pericenter": 19.9015,
        "meta_mean_anomaly": 341.4113,
        "meta_ephemeris_type": 0,
        "meta_classification_type": "U",
        "meta_norad_cat_id": 31236,
        "meta_element_set_no": 999,
        "meta_rev_at_epoch": 61161,
        "meta_bstar": 0.0056951139,
        "meta_mean_motion_dot": 9.64e-05,
        "meta_mean_motion_ddot": 0,
        "tle_line1": "1 31236U 99025BLS 25356.60548413  .00009640  00000+0  56951-2 0  9998",
        "tle_line2": "2 31236  98.5455 310.9827 0314943  19.9015 341.4113 13.85991880611616"
      },
      "geometry": {
        "type": "Point",
        "coordinates": [
          -58.600289627787454,
          49.98755861682898
        ]
      }
    },
    {
      "type": "Feature",
      "properties": {
        "norad_id": 31237,
        "name": "FENGYUN 1C DEB",
        "group": "fengyun-1c-debris",
        "lat": -75.71132654847226,
        "lon": 31.7174786017577,
        "alt_km": 742.6322905863708,
        "timestamp": "2025-12-23T09:49:07.364591+00:00",
        "meta_object_name": "FENGYUN 1C DEB",
        "meta_object_id": "1999-025BLT",
        "meta_epoch": "2025-12-22T20:45:28.440000",
        "meta_mean_motion": 14.31420045,
        "meta_eccentricity": 0.00884805,
        "meta_inclination": 98.4538,
        "meta_ra_of_asc_node": 355.4593,
        "meta_arg_of_pericenter": 318.9276,
        "meta_mean_anomaly": 40.5268,
        "meta_ephemeris_type": 0,
        "meta_classification_type": "U",
        "meta_norad_cat_id": 31237,
        "meta_element_set_no": 999,
        "meta_rev_at_epoch": 97411,
        "meta_bstar": 0.00053118388,
        "meta_mean_motion_dot": 1.428e-05,
        "meta_mean_motion_ddot": 0,
        "tle_line1": "1 31237U 99025BLT 25356.86491250  .00001428  00000+0  53118-3 0  9992",
        "tle_line2": "2 31237  98.4538 355.4593 0088480 318.9276  40.5268 14.31420045974114"
      },
      "geometry": {
        "type": "Point",
        "coordinates": [
          31.7174786017577,
          -75.71132654847226
        ]
      }
    },
    {
      "type": "Feature",
      "properties": {
        "norad_id": 31239,
        "name": "FENGYUN 1C DEB",
        "group": "fengyun-1c-debris",
        "lat": 9.180345228229783,
        "lon": -9.363183868084723,
        "alt_km": 894.8707593477229,
        "timestamp": "2025-12-23T09:49:07.364602+00:00",
        "meta_object_name": "FENGYUN 1C DEB",
        "meta_object_id": "1999-025BLV",
        "meta_epoch": "2025-12-21T22:09:05.412384",
        "meta_mean_motion": 14.09873304,
        "meta_eccentricity": 0.00497484,
        "meta_inclination": 98.7583,
        "meta_ra_of_asc_node": 350.6182,
        "meta_arg_of_pericenter": 171.9344,
        "meta_mean_anomaly": 218.9417,
        "meta_ephemeris_type": 0,
        "meta_classification_type": "U",
        "meta_norad_cat_id": 31239,
        "meta_element_set_no": 999,
        "meta_rev_at_epoch": 96141,
        "meta_bstar": 0.00037911814,
        "meta_mean_motion_dot": 6.32e-06,
        "meta_mean_motion_ddot": 0,
        "tle_line1": "1 31239U 99025BLV 25355.92297931  .00000632  00000+0  37912-3 0  9990",
        "tle_line2": "2 31239  98.7583 350.6182 0049748 171.9344 218.9417 14.09873304961418"
      },
      "geometry": {
        "type": "Point",
        "coordinates": [
          -9.363183868084723,
          9.180345228229783
        ]
      }
    },
    {
      "type": "Feature",
      "properties": {
        "norad_id": 31241,
        "name": "FENGYUN 1C DEB",
        "group": "fengyun-1c-debris",
        "lat": 47.75790096952839,
        "lon": 134.71430038736864,
        "alt_km": 767.34367104577,
        "timestamp": "2025-12-23T09:49:07.364612+00:00",
        "meta_object_name": "FENGYUN 1C DEB",
        "meta_object_id": "1999-025BLX",
        "meta_epoch": "2025-12-21T15:51:52.831296",
        "meta_mean_motion": 14.38728091,
        "meta_eccentricity": 0.0067133,
        "meta_inclination": 99.2357,
        "meta_ra_of_asc_node": 143.1563,
        "meta_arg_of_pericenter": 154.9209,
        "meta_mean_anomaly": 205.5262,
        "meta_ephemeris_type": 0,
        "meta_classification_type": "U",
        "meta_norad_cat_id": 31241,
        "meta_element_set_no": 999,
        "meta_rev_at_epoch": 97819,
        "meta_bstar": 0.00047979507,
        "meta_mean_motion_dot": 1.461e-05,
        "meta_mean_motion_ddot": 0,
        "tle_line1": "1 31241U 99025BLX 25355.66102814  .00001461  00000+0  47980-3 0  9996",
        "tle_line2": "2 31241  99.2357 143.1563 0067133 154.9209 205.5262 14.38728091978190"
      },
      "geometry": {
        "type": "Point",
        "coordinates": [
          134.71430038736864,
          47.75790096952839
        ]
      }
    },
    {
      "type": "Feature",
      "properties": {
        "norad_id": 31243,
        "name": "FENGYUN 1C DEB",
        "group": "fengyun-1c-debris",
        "lat": -23.82052595288553,
        "lon": -146.56783123740897,
        "alt_km": 854.1683772371034,
        "timestamp": "2025-12-23T09:49:07.364631+00:00",
        "meta_object_name": "FENGYUN 1C DEB",
        "meta_object_id": "1999-025BLZ",
        "meta_epoch": "2025-12-22T08:58:01.924896",
        "meta_mean_motion": 14.0719451,
        "meta_eccentricity": 0.00663838,
        "meta_inclination": 98.7492,
        "meta_ra_of_asc_node": 36.3283,
        "meta_arg_of_pericenter": 141.4463,
        "meta_mean_anomaly": 219.1474,
        "meta_ephemeris_type": 0,
        "meta_classification_type": "U",
        "meta_norad_cat_id": 31243,
        "meta_element_set_no": 999,
        "meta_rev_at_epoch": 69443,
        "meta_bstar": 0.00060971612,
        "meta_mean_motion_dot": 1e-05,
        "meta_mean_motion_ddot": 0,
        "tle_line1": "1 31243U 99025BLZ 25356.37363339  .00001000  00000+0  60972-3 0  9993",
        "tle_line2": "2 31243  98.7492  36.3283 0066383 141.4463 219.1474 14.07194510694434"
      },
      "geometry": {
        "type": "Point",
        "coordinates": [
          -146.56783123740897,
          -23.82052595288553
        ]
      }
    },
    {
      "type": "Feature",
      "properties": {
        "norad_id": 31244,
        "name": "FENGYUN 1C DEB",
        "group": "fengyun-1c-debris",
        "lat": -12.309023914262244,
        "lon": -120.98437550182815,
        "alt_km": 825.1623696459092,
        "timestamp": "2025-12-23T09:49:07.364641+00:00",
        "meta_object_name": "FENGYUN 1C DEB",
        "meta_object_id": "1999-025BMA",
        "meta_epoch": "2025-12-22T10:42:55.008864",
        "meta_mean_motion": 14.0626394,
        "meta_eccentricity": 0.01029519,
        "meta_inclination": 99.0337,
        "meta_ra_of_asc_node": 60.0445,
        "meta_arg_of_pericenter": 148.0726,
        "meta_mean_anomaly": 212.6736,
        "meta_ephemeris_type": 0,
        "meta_classification_type": "U",
        "meta_norad_cat_id": 31244,
        "meta_element_set_no": 999,
        "meta_rev_at_epoch": 57776,
        "meta_bstar": 0.00030551963,
        "meta_mean_motion_dot": 4.84e-06,
        "meta_mean_motion_ddot": 0,
        "tle_line1": "1 31244U 99025BMA 25356.44647001  .00000484  00000+0  30552-3 0  9999",
        "tle_line2": "2 31244  99.0337  60.0445 0102951 148.0726 212.6736 14.06263940577766"
      },
      "geometry": {
        "type": "Point",
        "coordinates": [
          -120.98437550182815,
          -12.309023914262244
        ]
      }
    }
  ]
}